GLOBALSTAR M024         
1 25883U 99043A   25048.97177788 -.00000125  00000+0 -21434-2 0  9999
2 25883  52.0019 289.6194 0000686 272.6275 101.2944 11.10165067101624
GLOBALSTAR M027         
1 25884U 99043B   25048.56705461 -.00000031  00000+0  12212-2 0  9999
2 25884  52.0254   5.1191 0021276 157.6910 202.4812 11.04370577128028
GLOBALSTAR M054         
1 25885U 99043C   25048.60960111 -.00000123  00000+0 -13085-2 0  9992
2 25885  52.0129 152.3923 0005132 334.7110  38.9459 11.39215066105754
GLOBALSTAR M053         
1 25886U 99043D   25048.87636814 -.00000061  00000+0  22739-3 0  9999
2 25886  51.9977  92.2276 0003467 230.3459 300.0376 11.27663125105989
GLOBALSTAR M058         
1 25907U 99049A   25048.76832835 -.00000053  00000+0  42692-3 0  9999
2 25907  51.9941  68.0532 0001972  52.1651 307.9362 11.93198989527289
GLOBALSTAR M050         
1 25908U 99049B   25048.86951013 -.00000074  00000+0  16064-3 0  9998
2 25908  51.9989  84.3736 0009508 153.2124  18.1499 12.07449644133772
GLOBALSTAR M033         
1 25909U 99049C   25048.76203158 -.00000139  00000+0 -45874-3 0  9992
2 25909  51.9941 324.7510 0013743  19.5315 340.6056 12.20287880521167
GLOBALSTAR M055         
1 25910U 99049D   25048.82622033 -.00000051  00000+0  37283-3 0  9995
2 25910  52.0049 341.1291 0006493 244.4940 115.5241 12.29421017153602
